[{"OBJECT_NAME":"DONGPO 08","OBJECT_ID":"2022-167E","EPOCH":"2026-03-09T22:57:52.742880","MEAN_MOTION":15.31542505,"ECCENTRICITY":0.00092155,"INCLINATION":97.6764,"RA_OF_ASC_NODE":233.3854,"ARG_OF_PERICENTER":153.9158,"MEAN_ANOMALY":206.2548,"EPHEMERIS_TYPE":0,"CLASSIFICATION_TYPE":"U","NORAD_CAT_ID":54686,"ELEMENT_SET_NO":999,"REV_AT_EPOCH":18012,"BSTAR":0.0004734784,"MEAN_MOTION_DOT":0.0001437,"MEAN_MOTION_DDOT":0},{"OBJECT_NAME":"STARLINK-35312","OBJECT_ID":"2025-223N","EPOCH":"2026-03-09T21:29:07.586880","MEAN_MOTION":15.30224934,"ECCENTRICITY":6.52e-5,"INCLINATION":53.1586,"RA_OF_ASC_NODE":293.4649,"ARG_OF_PERICENTER":66.1851,"MEAN_ANOMALY":293.9218,"EPHEMERIS_TYPE":0,"CLASSIFICATION_TYPE":"U","NORAD_CAT_ID":65866,"ELEMENT_SET_NO":999,"REV_AT_EPOCH":2423,"BSTAR":0.00076541431,"MEAN_MOTION_DOT":0.00022396,"MEAN_MOTION_DDOT":0}]
